{
  "type": "FeatureCollection",
  "features": [
    {
      "type": "Feature",
      "properties": {
        "norad_id": 34141,
        "name": "COSMOS 2251 DEB",
        "group": "cosmos-2251-debris",
        "lat": -62.62300048647644,
        "lon": -127.21724126859833,
        "alt_km": 761.5380936283136,
        "timestamp": "2025-12-17T21:39:46.083520+00:00",
        "meta_object_name": "COSMOS 2251 DEB",
        "meta_object_id": "1993-036LN",
        "meta_epoch": "2025-12-17T12:47:58.814304",
        "meta_mean_motion": 14.49290674,
        "meta_eccentricity": 0.00467848,
        "meta_inclination": 74.0112,
        "meta_ra_of_asc_node": 19.856,
        "meta_arg_of_pericenter": 104.499,
        "meta_mean_anomaly": 16.6128,
        "meta_ephemeris_type": 0,
        "meta_classification_type": "U",
        "meta_norad_cat_id": 34141,
        "meta_element_set_no": 999,
        "meta_rev_at_epoch": 87763,
        "meta_bstar": 0.0010448559,
        "meta_mean_motion_dot": 4.017e-05,
        "meta_mean_motion_ddot": 0,
        "tle_line1": "1 34141U 93036LN  25351.53331961  .00004017  00000+0  10449-2 0  9992",
        "tle_line2": "2 34141  74.0112  19.8560 0046784 104.4990  16.6128 14.49290674877636"
      },
      "geometry": {
        "type": "Point",
        "coordinates": [
          -127.21724126859833,
          -62.62300048647644
        ]
      }
    },
    {
      "type": "Feature",
      "properties": {
        "norad_id": 34270,
        "name": "COSMOS 2251 DEB",
        "group": "cosmos-2251-debris",
        "lat": 38.43027179492214,
        "lon": 103.5279449443155,
        "alt_km": 652.1819654605642,
        "timestamp": "2025-12-17T21:39:46.083529+00:00",
        "meta_object_name": "COSMOS 2251 DEB",
        "meta_object_id": "1993-036LQ",
        "meta_epoch": "2025-12-17T12:50:19.902048",
        "meta_mean_motion": 14.65207723,
        "meta_eccentricity": 0.00477934,
        "meta_inclination": 74.0115,
        "meta_ra_of_asc_node": 297.3859,
        "meta_arg_of_pericenter": 88.7561,
        "meta_mean_anomaly": 271.9082,
        "meta_ephemeris_type": 0,
        "meta_classification_type": "U",
        "meta_norad_cat_id": 34270,
        "meta_element_set_no": 999,
        "meta_rev_at_epoch": 89166,
        "meta_bstar": 0.00058493972,
        "meta_mean_motion_dot": 3.172e-05,
        "meta_mean_motion_ddot": 0,
        "tle_line1": "1 34270U 93036LQ  25351.53495257  .00003172  00000+0  58494-3 0  9998",
        "tle_line2": "2 34270  74.0115 297.3859 0047793  88.7561 271.9082 14.65207723891660"
      },
      "geometry": {
        "type": "Point",
        "coordinates": [
          103.5279449443155,
          38.43027179492214
        ]
      }
    },
    {
      "type": "Feature",
      "properties": {
        "norad_id": 34271,
        "name": "COSMOS 2251 DEB",
        "group": "cosmos-2251-debris",
        "lat": -9.243776755897985,
        "lon": 11.968926116603482,
        "alt_km": 654.2490839524407,
        "timestamp": "2025-12-17T21:39:46.083538+00:00",
        "meta_object_name": "COSMOS 2251 DEB",
        "meta_object_id": "1993-036LR",
        "meta_epoch": "2025-12-17T14:31:51.472704",
        "meta_mean_motion": 14.70863334,
        "meta_eccentricity": 0.00186002,
        "meta_inclination": 74.0194,
        "meta_ra_of_asc_node": 189.873,
        "meta_arg_of_pericenter": 243.5419,
        "meta_mean_anomaly": 173.2873,
        "meta_ephemeris_type": 0,
        "meta_classification_type": "U",
        "meta_norad_cat_id": 34271,
        "meta_element_set_no": 999,
        "meta_rev_at_epoch": 88306,
        "meta_bstar": 0.0013680399,
        "meta_mean_motion_dot": 8.368e-05,
        "meta_mean_motion_ddot": 0,
        "tle_line1": "1 34271U 93036LR  25351.60545686  .00008368  00000+0  13680-2 0  9998",
        "tle_line2": "2 34271  74.0194 189.8730 0018600 243.5419 173.2873 14.70863334883068"
      },
      "geometry": {
        "type": "Point",
        "coordinates": [
          11.968926116603482,
          -9.243776755897985
        ]
      }
    },
    {
      "type": "Feature",
      "properties": {
        "norad_id": 34273,
        "name": "COSMOS 2251 DEB",
        "group": "cosmos-2251-debris",
        "lat": 30.0796880071556,
        "lon": 87.09975614198153,
        "alt_km": 696.8737755644743,
        "timestamp": "2025-12-17T21:39:46.083547+00:00",
        "meta_object_name": "COSMOS 2251 DEB",
        "meta_object_id": "1993-036LT",
        "meta_epoch": "2025-12-17T15:15:42.280992",
        "meta_mean_motion": 14.61271114,
        "meta_eccentricity": 0.00138576,
        "meta_inclination": 74.0364,
        "meta_ra_of_asc_node": 78.066,
        "meta_arg_of_pericenter": 203.9751,
        "meta_mean_anomaly": 225.0882,
        "meta_ephemeris_type": 0,
        "meta_classification_type": "U",
        "meta_norad_cat_id": 34273,
        "meta_element_set_no": 999,
        "meta_rev_at_epoch": 88693,
        "meta_bstar": 0.00069919254,
        "meta_mean_motion_dot": 3.426e-05,
        "meta_mean_motion_ddot": 0,
        "tle_line1": "1 34273U 93036LT  25351.63590603  .00003426  00000+0  69919-3 0  9999",
        "tle_line2": "2 34273  74.0364  78.0660 0013857 203.9751 225.0882 14.61271114886932"
      },
      "geometry": {
        "type": "Point",
        "coordinates": [
          87.09975614198153,
          30.0796880071556
        ]
      }
    },
    {
      "type": "Feature",
      "properties": {
        "norad_id": 34274,
        "name": "COSMOS 2251 DEB",
        "group": "cosmos-2251-debris",
        "lat": 0.0436636533649869,
        "lon": -121.39173862121768,
        "alt_km": 666.6978165113806,
        "timestamp": "2025-12-17T21:39:46.083556+00:00",
        "meta_object_name": "COSMOS 2251 DEB",
        "meta_object_id": "1993-036LU",
        "meta_epoch": "2025-12-17T15:01:21.772416",
        "meta_mean_motion": 14.6484124,
        "meta_eccentricity": 0.00217906,
        "meta_inclination": 74.0048,
        "meta_ra_of_asc_node": 59.1536,
        "meta_arg_of_pericenter": 208.9623,
        "meta_mean_anomaly": 312.5935,
        "meta_ephemeris_type": 0,
        "meta_classification_type": "U",
        "meta_norad_cat_id": 34274,
        "meta_element_set_no": 999,
        "meta_rev_at_epoch": 88747,
        "meta_bstar": 0.00083716258,
        "meta_mean_motion_dot": 4.457e-05,
        "meta_mean_motion_ddot": 0,
        "tle_line1": "1 34274U 93036LU  25351.62594644  .00004457  00000+0  83716-3 0  9994",
        "tle_line2": "2 34274  74.0048  59.1536 0021790 208.9623 312.5935 14.64841240887479"
      },
      "geometry": {
        "type": "Point",
        "coordinates": [
          -121.39173862121768,
          0.0436636533649869
        ]
      }
    },
    {
      "type": "Feature",
      "properties": {
        "norad_id": 34276,
        "name": "COSMOS 2251 DEB",
        "group": "cosmos-2251-debris",
        "lat": -21.975748356059896,
        "lon": 68.86708184441213,
        "alt_km": 713.8307576297912,
        "timestamp": "2025-12-17T21:39:46.083565+00:00",
        "meta_object_name": "COSMOS 2251 DEB",
        "meta_object_id": "1993-036LW",
        "meta_epoch": "2025-12-17T11:57:08.972064",
        "meta_mean_motion": 14.57261051,
        "meta_eccentricity": 0.00224512,
        "meta_inclination": 74.0244,
        "meta_ra_of_asc_node": 76.2743,
        "meta_arg_of_pericenter": 222.6135,
        "meta_mean_anomaly": 152.6566,
        "meta_ephemeris_type": 0,
        "meta_classification_type": "U",
        "meta_norad_cat_id": 34276,
        "meta_element_set_no": 999,
        "meta_rev_at_epoch": 88662,
        "meta_bstar": 0.00057189338,
        "meta_mean_motion_dot": 2.566e-05,
        "meta_mean_motion_ddot": 0,
        "tle_line1": "1 34276U 93036LW  25351.49802051  .00002566  00000+0  57189-3 0  9999",
        "tle_line2": "2 34276  74.0244  76.2743 0022451 222.6135 152.6566 14.57261051886622"
      },
      "geometry": {
        "type": "Point",
        "coordinates": [
          68.86708184441213,
          -21.975748356059896
        ]
      }
    },
    {
      "type": "Feature",
      "properties": {
        "norad_id": 34297,
        "name": "COSMOS 2251 DEB",
        "group": "cosmos-2251-debris",
        "lat": -32.38256059582272,
        "lon": -95.6980128528634,
        "alt_km": 763.3768466323545,
        "timestamp": "2025-12-17T21:39:46.083574+00:00",
        "meta_object_name": "COSMOS 2251 DEB",
        "meta_object_id": "1993-036MT",
        "meta_epoch": "2025-12-17T12:37:16.348224",
        "meta_mean_motion": 14.36633522,
        "meta_eccentricity": 0.0017478,
        "meta_inclination": 74.0488,
        "meta_ra_of_asc_node": 275.4439,
        "meta_arg_of_pericenter": 343.1884,
        "meta_mean_anomaly": 195.483,
        "meta_ephemeris_type": 0,
        "meta_classification_type": "U",
        "meta_norad_cat_id": 34297,
        "meta_element_set_no": 999,
        "meta_rev_at_epoch": 88133,
        "meta_bstar": 0.00011650828,
        "meta_mean_motion_dot": 3.17e-06,
        "meta_mean_motion_ddot": 0,
        "tle_line1": "1 34297U 93036MT  25351.52588366  .00000317  00000+0  11651-3 0  9992",
        "tle_line2": "2 34297  74.0488 275.4439 0017478 343.1884 195.4830 14.36633522881338"
      },
      "geometry": {
        "type": "Point",
        "coordinates": [
          -95.6980128528634,
          -32.38256059582272
        ]
      }
    }
  ]
}